NORAD_CAT_ID,OBJECT_NAME,OBJECT_TYPE,EPOCH,MEAN_MOTION,ECCENTRICITY,INCLINATION,RA_OF_ASC_NODE,ARG_OF_PERICENTER,MEAN_ANOMALY,BSTAR,MEAN_MOTION_DOT,MEAN_MOTION_DDOT,TLE_LINE0,TLE_LINE1,TLE_LINE2,SEMIMAJOR_AXIS,PERIOD,APOGEE,PERIGEE,DECAYED
51725.0,STARLINK-3522,PAYLOAD,2024-07-15 14:17:04,15.08843322,0.0001201,53.2166,152.0255,86.0814,274.0316,5.1248e-05,5.28e-06,0.0,0 STARLINK-3522,1 51725U 22016M   24197.59519351  .00000528  00000-0  51248-4 0  9991,2 51725  53.2166 152.0255 0001201  86.0814 274.0316 15.08843322132528,6917.87,95.437,540.566,538.904,0.0
51725.0,STARLINK-3522,PAYLOAD,2024-07-16 06:10:55,15.08847184,0.0001362,53.2179,149.0492,92.4624,267.6524,7.0557e-05,8.35e-06,0.0,0 STARLINK-3522,1 51725U 22016M   24198.25759029  .00000835  00000-0  70557-4 0  9998,2 51725  53.2179 149.0492 0001362  92.4624 267.6524 15.08847184133765,6917.858,95.437,540.666,538.781,0.0
51725.0,STARLINK-3522,PAYLOAD,2024-07-17 13:58:38,15.08839108,0.0001247,53.2186,143.1011,128.0529,232.0576,7.0761e-06,-1.75e-06,0.0,0 STARLINK-3522,1 51725U 22016M   24199.58239274 -.00000175  00000-0  70761-5 0  9996,2 51725  53.2186 143.1011 0001247 128.0529 232.0576 15.08839108132823,6917.883,95.438,540.611,538.885,0.0
51725.0,STARLINK-3522,PAYLOAD,2024-07-18 05:52:30,15.08843858,0.0001529,53.2168,140.1293,115.9333,244.1817,-1.1774e-05,-4.75e-06,0.0,0 STARLINK-3522,1 51725U 22016M   24200.24479297 -.00000475  00000-0 -11774-4 0  9995,2 51725  53.2168 140.1293 0001529 115.9333 244.1817 15.08843858132923,6917.869,95.437,540.791,538.676,0.0
51725.0,STARLINK-3522,PAYLOAD,2024-07-19 02:32:31,15.08838913,0.0001566,53.2175,136.2607,104.0396,256.077,-3.8985e-05,-9.08e-06,0.0,0 STARLINK-3522,1 51725U 22016M   24201.10592043 -.00000908  00000-0 -38985-4 0  9990,2 51725  53.2175 136.2607 0001566 104.0396 256.0770 15.08838913134192,6917.884,95.438,540.832,538.665,0.0
51725.0,STARLINK-3522,PAYLOAD,2024-07-19 05:43:17,15.08838038,0.0001606,53.2178,135.6669,104.2335,255.8836,-4.9226e-05,-1.071e-05,0.0,0 STARLINK-3522,1 51725U 22016M   24201.23840177 -.00001071  00000-0 -49226-4 0  9990,2 51725  53.2178 135.6669 0001606 104.2335 255.8836 15.08838038133070,6917.886,95.438,540.862,538.64,0.0
51725.0,STARLINK-3522,PAYLOAD,2024-07-20 02:23:17,15.08849159,0.0001126,53.2166,131.8016,103.4085,256.7033,0.00020439,2.967e-05,0.0,0 STARLINK-3522,1 51725U 22016M   24202.09951063  .00002967  00000-0  20439-3 0  9999,2 51725  53.2166 131.8016 0001126 103.4085 256.7033 15.08849159134347,6917.852,95.437,540.496,538.938,0.0
51725.0,STARLINK-3522,PAYLOAD,2024-07-20 11:55:36,15.08847514,0.0001171,53.2162,130.0258,110.5015,249.6103,9.501e-05,1.225e-05,0.0,0 STARLINK-3522,1 51725U 22016M   24202.49695463  .00001225  00000-0  95010-4 0  9996,2 51725  53.2162 130.0258 0001171 110.5015 249.6103 15.08847514134403,6917.857,95.437,540.533,538.912,0.0
51725.0,STARLINK-3522,PAYLOAD,2024-07-21 02:14:06,15.0883448,0.0001636,53.2174,127.3547,120.3132,239.8022,4.4318e-06,-2.18e-06,0.0,0 STARLINK-3522,1 51725U 22016M   24203.09312998 -.00000218  00000-0  44318-5 0  9990,2 51725  53.2174 127.3547 0001636 120.3132 239.8022 15.08834480134499,6917.897,95.438,540.894,538.63,0.0
51725.0,STARLINK-3522,PAYLOAD,2024-07-22 03:40:16,15.08847306,0.0001366,53.2169,122.5924,104.8844,255.23,5.698e-05,6.19e-06,0.0,0 STARLINK-3522,1 51725U 22016M   24204.15296317  .00000619  00000-0  56980-4 0  9995,2 51725  53.2169 122.5924 0001366 104.8844 255.2300 15.08847306134656,6917.858,95.437,540.668,538.778,0.0
51725.0,STARLINK-3522,PAYLOAD,2024-07-22 22:44:53,15.08841821,0.0001351,53.2174,119.0248,107.8506,252.2634,0.0001529,2.146e-05,0.0,0 STARLINK-3522,1 51725U 22016M   24204.94784312  .00002146  00000-0  15290-3 0  9994,2 51725  53.2174 119.0248 0001351 107.8506 252.2634 15.08841821133634,6917.875,95.437,540.674,538.805,0.0
51725.0,STARLINK-3522,PAYLOAD,2024-07-23 11:27:59,15.08837419,0.0001094,53.217,116.6445,93.8754,266.2363,6.1169e-05,6.86e-06,0.0,0 STARLINK-3522,1 51725U 22016M   24205.47776711  .00000686  00000-0  61169-4 0  9991,2 51725  53.2170 116.6445 0001094  93.8754 266.2363 15.08837419134852,6917.888,95.438,540.51,538.996,0.0
51725.0,STARLINK-3522,PAYLOAD,2024-07-23 22:35:41,15.08836517,0.0001655,53.2176,114.5497,105.0328,255.0847,-4.5824e-05,-1.017e-05,0.0,0 STARLINK-3522,1 51725U 22016M   24205.94145279 -.00001017  00000-0 -45824-4 0  9993,2 51725  53.2176 114.5497 0001655 105.0328 255.0847 15.08836517133780,6917.891,95.438,540.901,538.611,0.0
51725.0,STARLINK-3522,PAYLOAD,2024-07-24 01:46:27,15.08834008,0.0001448,53.217,113.9594,105.6997,254.4155,-6.981e-05,-1.399e-05,0.0,0 STARLINK-3522,1 51725U 22016M   24206.07393516 -.00001399  00000-0 -69810-4 0  9991,2 51725  53.2170 113.9594 0001448 105.6997 254.4155 15.08834008134940,6917.899,95.438,540.765,538.762,0.0
51725.0,STARLINK-3522,PAYLOAD,2024-07-24 17:40:18,15.08848829,0.0001312,53.2168,110.9884,107.5106,252.603,-7.6975e-05,-1.513e-05,0.0,0 STARLINK-3522,1 51725U 22016M   24206.73632782 -.00001513  00000-0 -76975-4 0  9993,2 51725  53.2168 110.9884 0001312 107.5106 252.6030 15.08848829135049,6917.853,95.437,540.626,538.811,0.0
51725.0,STARLINK-3522,PAYLOAD,2024-07-24 22:26:27,15.08856155,0.0001301,53.2164,110.1015,99.2707,260.8433,-2.3371e-05,-6.6e-06,0.0,0 STARLINK-3522,1 51725U 22016M   24206.93504069 -.00000660  00000-0 -23371-4 0  9995,2 51725  53.2164 110.1015 0001301  99.2707 260.8433 15.08856155133930,6917.831,95.437,540.596,538.796,0.0
51725.0,STARLINK-3522,PAYLOAD,2024-07-25 00:01:50,15.08857341,0.0001365,53.2166,109.804,90.9579,269.157,-6.5899e-06,-3.93e-06,0.0,0 STARLINK-3522,1 51725U 22016M   24207.00127956 -.00000393  00000-0 -65899-5 0  9995,2 51725  53.2166 109.8040 0001365  90.9579 269.1570 15.08857341135080,6917.827,95.436,540.637,538.748,0.0
51725.0,STARLINK-3522,PAYLOAD,2024-07-25 17:31:06,15.08831148,0.0001615,53.2164,106.5386,69.5617,290.5549,0.00016394,2.321e-05,0.0,0 STARLINK-3522,1 51725U 22016M   24207.72993291  .00002321  00000-0  16394-3 0  9992,2 51725  53.2164 106.5386 0001615  69.5617 290.5549 15.08831148135191,6917.907,95.438,540.89,538.655,0.0
51725.0,STARLINK-3522,PAYLOAD,2024-07-25 22:17:16,15.08824725,0.0001284,53.2157,105.6436,84.8662,275.2477,9.1876e-05,1.174e-05,0.0,0 STARLINK-3522,1 51725U 22016M   24207.92865743  .00001174  00000-0  91876-4 0  9998,2 51725  53.2157 105.6436 0001284  84.8662 275.2477 15.08824725134081,6917.927,95.439,540.68,538.904,0.0
51725.0,STARLINK-3522,PAYLOAD,2024-07-26 03:03:24,15.08836414,0.0001242,53.2168,104.746,95.6044,264.509,4.9483e-05,5e-06,0.0,0 STARLINK-3522,1 51725U 22016M   24208.12737187  .00000500  00000-0  49483-4 0  9990,2 51725  53.2168 104.7460 0001242  95.6044 264.5090 15.08836414134112,6917.891,95.438,540.616,538.897,0.0
51725.0,STARLINK-3522,PAYLOAD,2024-07-26 17:21:52,15.08851712,0.000151,53.2182,102.0707,99.1647,260.9516,2.5582e-05,1.19e-06,0.0,0 STARLINK-3522,1 51725U 22016M   24208.72352332  .00000119  00000-0  25582-4 0  9991,2 51725  53.2182 102.0707 0001510  99.1647 260.9516 15.08851712135346,6917.845,95.437,540.754,538.665,0.0
51725.0,STARLINK-3522,PAYLOAD,2024-07-27 21:58:50,15.08820996,0.0002071,53.2192,96.724,95.6582,264.4647,-1.99e-05,-6.05e-06,0.0,0 STARLINK-3522,1 51725U 22016M   24209.91586350 -.00000605  00000-0 -19900-4 0  9991,2 51725  53.2192  96.7240 0002071  95.6582 264.4647 15.08820996134387,6917.938,95.439,541.236,538.371,0.0
51725.0,STARLINK-3522,PAYLOAD,2024-07-27 23:34:13,15.08824885,0.0001563,53.2185,96.4247,94.5335,265.5836,-3.6379e-05,-8.67e-06,0.0,0 STARLINK-3522,1 51725U 22016M   24209.98210264 -.00000867  00000-0 -36379-4 0  9995,2 51725  53.2185  96.4247 0001563  94.5335 265.5836 15.08824885135533,6917.927,95.439,540.873,538.71,0.0
51725.0,STARLINK-3522,PAYLOAD,2024-07-28 20:14:15,15.08754169,0.0003932,53.2175,92.5623,103.4551,256.688,0.0012074,0.00018937,0.0,0 STARLINK-3522,1 51725U 22016M   24210.84323803  .00018937  00000-0  12074-2 0  9995,2 51725  53.2175  92.5623 0003932 103.4551 256.6880 15.08754169135660,6918.143,95.443,542.728,537.288,0.0
51725.0,STARLINK-3522,PAYLOAD,2024-07-28 21:49:34,15.08924634,0.0001731,53.2175,92.2622,116.9891,243.1278,-0.0012386,-0.00019992,0.0,0 STARLINK-3522,1 51725U 22016M   24210.90943230 -.00019992  00000-0 -12386-2 0  9994,2 51725  53.2175  92.2622 0001731 116.9891 243.1278 15.08924634134530,6917.622,95.432,540.684,538.289,0.0
51725.0,STARLINK-3522,PAYLOAD,2024-07-28 23:24:57,15.08931789,0.0001871,53.2175,91.9644,120.3085,239.8092,-0.0013907,-0.00022409,0.0,0 STARLINK-3522,1 51725U 22016M   24210.97566475 -.00022409  00000-0 -13907-2 0  9990,2 51725  53.2175  91.9644 0001871 120.3085 239.8092 15.08931789135681,6917.6,95.432,540.759,538.171,0.0
51725.0,STARLINK-3522,PAYLOAD,2024-07-29 21:40:23,15.08844686,0.0001687,53.2166,87.7992,97.5196,262.5988,0.00032502,4.889e-05,0.0,0 STARLINK-3522,1 51725U 22016M   24211.90305481  .00004889  00000-0  32502-3 0  9995,2 51725  53.2166  87.7992 0001687  97.5196 262.5988 15.08844686135825,6917.866,95.437,540.898,538.564,0.0
51725.0,STARLINK-3522,PAYLOAD,2024-07-30 15:09:38,15.08848526,0.0001666,53.2171,84.5298,91.4697,268.6486,0.00020263,2.939e-05,0.0,0 STARLINK-3522,1 51725U 22016M   24212.63169302  .00002939  00000-0  20263-3 0  9991,2 51725  53.2171  84.5298 0001666  91.4697 268.6486 15.08848526134793,6917.854,95.437,540.872,538.567,0.0
51725.0,STARLINK-3522,PAYLOAD,2024-07-30 23:06:33,15.08851909,0.0001618,53.2166,83.0426,95.8908,264.2268,0.00012929,1.771e-05,0.0,0 STARLINK-3522,1 51725U 22016M   24212.96289078  .00001771  00000-0  12929-3 0  9993,2 51725  53.2166  83.0426 0001618  95.8908 264.2268 15.08851909134849,6917.844,95.437,540.828,538.59,0.0
51725.0,STARLINK-3522,PAYLOAD,2024-07-31 08:38:52,15.08842867,0.0001576,53.2161,81.256,79.3318,280.7852,5.8702e-05,6.46e-06,0.0,0 STARLINK-3522,1 51725U 22016M   24213.36033493  .00000646  00000-0  58702-4 0  9996,2 51725  53.2161  81.2560 0001576  79.3318 280.7852 15.08842867136047,6917.872,95.437,540.827,538.646,0.0
